CCSDS_OMM_VERS,COMMENT,CREATION_DATE,ORIGINATOR,OBJECT_NAME,OBJECT_ID,CENTER_NAME,REF_FRAME,TIME_SYSTEM,MEAN_ELEMENT_THEORY,EPOCH,MEAN_MOTION,ECCENTRICITY,INCLINATION,RA_OF_ASC_NODE,ARG_OF_PERICENTER,MEAN_ANOMALY,EPHEMERIS_TYPE,CLASSIFICATION_TYPE,NORAD_CAT_ID,ELEMENT_SET_NO,REV_AT_EPOCH,BSTAR,MEAN_MOTION_DOT,MEAN_MOTION_DDOT,SEMIMAJOR_AXIS,PERIOD,APOAPSIS,PERIAPSIS,OBJECT_TYPE,RCS_SIZE,COUNTRY_CODE,LAUNCH_DATE,SITE,DECAY_DATE,FILE,GP_ID,TLE_LINE0,TLE_LINE1,TLE_LINE2
"2.0","GENERATED VIA SPACE-TRACK.ORG API","2020-01-29T06:40:15","18 SPCS","IRIDIUM 136","2017-061H","EARTH","TEME","UTC","SGP4","2020-01-29T03:32:50.186112","14.34220233","0.00023010","86.3968","279.3175","94.3358","265.8101","0","U","42962","999","12072","0.00001788400000","0.00000070","0.0000000000000","7155.795","100.402","779.307","776.014","PAYLOAD","LARGE","US","2017-10-09","AFWTR","","2691783","147606929","0 IRIDIUM 136","1 42962U 17061H   20029.14780308  .00000070  00000-0  17884-4 0  9991","2 42962  86.3968 279.3175 0002301  94.3358 265.8101 14.34220233120726"
"2.0","GENERATED VIA SPACE-TRACK.ORG API","2020-01-28T22:30:18","18 SPCS","COSMOS 1818","1987-011A","EARTH","TEME","UTC","SGP4","2020-01-28T20:24:23.467968","14.31452335","0.00137010","65.0117","297.1752","258.1801","101.7746","0","U","17369","999","77541","0.00001010100000","-0.00000073","0.0000000000000","7165.017","100.597","796.699","777.065","PAYLOAD","LARGE","CIS","1987-02-01","TTMTR","","2691612","147583493","0 COSMOS 1818","1 17369U 87011A   20028.85027162 -.00000073  00000-0  10101-4 0  9994","2 17369  65.0117 297.1752 0013701 258.1801 101.7746 14.31452335775419"
"2.0","GENERATED VIA SPACE-TRACK.ORG API","2020-01-29T02:12:46","18 SPCS","IRIDIUM 136","2017-061H","EARTH","TEME","UTC","SGP4","2020-01-28T17:30:02.251872","14.34220177","0.00022970","86.3969","279.4925","94.3139","265.8319","0","U","42962","999","12066","0.00001751200000","0.00000069","0.0000000000000","7155.796","100.402","779.304","776.017","PAYLOAD","LARGE","US","2017-10-09","AFWTR","","2691723","147603834","0 IRIDIUM 136","1 42962U 17061H   20028.72919273 +.00000069 +00000-0 +17512-4 0  9995","2 42962 086.3969 279.4925 0002297 094.3139 265.8319 14.34220177120663"
"2.0","GENERATED VIA SPACE-TRACK.ORG API","2020-01-28T18:30:32","18 SPCS","COSMOS 1818","1987-011A","EARTH","TEME","UTC","SGP4","2020-01-28T10:20:45.954816","14.31452327","0.00137160","65.0118","298.3490","258.1813","101.7733","0","U","17369","999","77507","0.00001416000000","-0.00000063","0.0000000000000","7165.017","100.597","796.709","777.054","PAYLOAD","LARGE","CIS","1987-02-01","TTMTR","","2691543","147489184","0 COSMOS 1818","1 17369U 87011A   20028.43108744 -.00000063 +00000-0 +14160-4 0  9992","2 17369 065.0118 298.3490 0013716 258.1813 101.7733 14.31452327775070"
"2.0","GENERATED VIA SPACE-TRACK.ORG API","2020-01-28T18:30:32","18 SPCS","IRIDIUM 136","2017-061H","EARTH","TEME","UTC","SGP4","2020-01-28T05:46:46.324416","14.34220135","0.00022900","86.3969","279.6966","94.4052","265.7406","0","U","42962","999","12059","0.00001880800000","0.00000072","0.0000000000000","7155.796","100.402","779.299","776.022","PAYLOAD","LARGE","US","2017-10-09","AFWTR","","2691543","147502767","0 IRIDIUM 136","1 42962U 17061H   20028.24081394 +.00000072 +00000-0 +18808-4 0  9999","2 42962 086.3969 279.6966 0002290 094.4052 265.7406 14.34220135120590"
"2.0","GENERATED VIA SPACE-TRACK.ORG API","2020-01-28T06:30:16","18 SPCS","IRIDIUM 136","2017-061H","EARTH","TEME","UTC","SGP4","2020-01-28T02:25:50.347488","14.34220111","0.00022880","86.3970","279.7549","94.3884","265.7573","0","U","42962","999","12057","0.00001905600000","0.00000073","0.0000000000000","7155.796","100.402","779.298","776.024","PAYLOAD","LARGE","US","2017-10-09","AFWTR","","2691212","147477511","0 IRIDIUM 136","1 42962U 17061H   20028.10127717  .00000073  00000-0  19056-4 0  9991","2 42962  86.3970 279.7549 0002288  94.3884 265.7573 14.34220111120576"
"2.0","GENERATED VIA SPACE-TRACK.ORG API","2020-01-28T02:48:37","18 SPCS","COSMOS 1818","1987-011A","EARTH","TEME","UTC","SGP4","2020-01-27T20:55:55.938144","14.31452280","0.00137320","65.0118","299.9140","258.0991","101.8554","0","U","17369","999","77499","0.00001586600000","-0.00000058","0.0000000000000","7165.017","100.597","796.721","777.043","PAYLOAD","LARGE","CIS","1987-02-01","TTMTR","","2691141","147441369","0 COSMOS 1818","1 17369U 87011A   20027.87217521 -.00000058 +00000-0 +15866-4 0  9991","2 17369 065.0118 299.9140 0013732 258.0991 101.8554 14.31452280774993"
"2.0","GENERATED VIA SPACE-TRACK.ORG API","2020-01-28T02:48:37","18 SPCS","IRIDIUM 136","2017-061H","EARTH","TEME","UTC","SGP4","2020-01-27T19:43:58.382400","14.34220098","0.00022780","86.3970","279.8715","94.7849","265.3607","0","U","42962","999","12053","0.00002034100000","0.00000077","0.0000000000000","7155.796","100.402","779.291","776.031","PAYLOAD","LARGE","US","2017-10-09","AFWTR","","2691141","147454949","0 IRIDIUM 136","1 42962U 17061H   20027.82220350 +.00000077 +00000-0 +20341-4 0  9999","2 42962 086.3970 279.8715 0002278 094.7849 265.3607 14.34220098120530"
"2.0","GENERATED VIA SPACE-TRACK.ORG API","2020-01-27T14:30:18","18 SPCS","COSMOS 1818","1987-011A","EARTH","TEME","UTC","SGP4","2020-01-27T10:52:18.424128","14.31452257","0.00137430","65.0119","301.0878","258.0981","101.8563","0","U","17369","999","77521","0.00001925700000","-0.00000049","0.0000000000000","7165.017","100.597","796.729","777.035","PAYLOAD","LARGE","CIS","1987-02-01","TTMTR","","2690834","147410694","0 COSMOS 1818","1 17369U 87011A   20027.45299102 -.00000049  00000-0  19257-4 0  9998","2 17369  65.0119 301.0878 0013743 258.0981 101.8563 14.31452257775218"
"2.0","GENERATED VIA SPACE-TRACK.ORG API","2020-01-27T17:45:22","18 SPCS","IRIDIUM 136","2017-061H","EARTH","TEME","UTC","SGP4","2020-01-27T04:39:46.465920","14.34220084","0.00022580","86.3970","280.1339","95.1877","264.9576","0","U","42962","999","12044","0.00002376400000","0.00000086","0.0000000000000","7155.796","100.403","779.277","776.045","PAYLOAD","LARGE","US","2017-10-09","AFWTR","","2690976","147432283","0 IRIDIUM 136","1 42962U 17061H   20027.19428780 +.00000086 +00000-0 +23764-4 0  9998","2 42962 086.3970 280.1339 0002258 095.1877 264.9576 14.34220084120446"
"2.0","GENERATED VIA SPACE-TRACK.ORG API","2020-01-27T17:45:22","18 SPCS","COSMOS 1818","1987-011A","EARTH","TEME","UTC","SGP4","2020-01-27T04:09:53.414496","14.31452220","0.00137500","65.0119","301.8702","258.0524","101.9019","0","U","17369","999","77489","0.00001980700000","-0.00000048","0.0000000000000","7165.017","100.597","796.734","777.030","PAYLOAD","LARGE","CIS","1987-02-01","TTMTR","","2690976","147418705","0 COSMOS 1818","1 17369U 87011A   20027.17353489 -.00000048 +00000-0 +19807-4 0  9996","2 17369 065.0119 301.8702 0013750 258.0524 101.9019 14.31452220774893"
"2.0","GENERATED VIA SPACE-TRACK.ORG API","2020-01-27T02:29:19","18 SPCS","COSMOS 1818","1987-011A","EARTH","TEME","UTC","SGP4","2020-01-26T21:27:28.400544","14.31452195","0.00137590","65.0119","302.6528","258.0080","101.9462","0","U","17369","999","77485","0.00001796600000","-0.00000052","0.0000000000000","7165.017","100.597","796.741","777.024","PAYLOAD","LARGE","CIS","1987-02-01","TTMTR","","2690503","147373237","0 COSMOS 1818","1 17369U 87011A   20026.89407871 -.00000052 +00000-0 +17966-4 0  9998","2 17369 065.0119 302.6528 0013759 258.0080 101.9462 14.31452195774853"
"2.0","GENERATED VIA SPACE-TRACK.ORG API","2020-01-27T02:30:26","18 SPCS","IRIDIUM 136","2017-061H","EARTH","TEME","UTC","SGP4","2020-01-26T20:17:26.514528","14.34220021","0.00022560","86.3971","280.2797","95.3034","264.8420","0","U","42962","999","12039","0.00002250400000","0.00000083","0.0000000000000","7155.796","100.403","779.275","776.047","PAYLOAD","LARGE","US","2017-10-09","AFWTR","","2690504","147402053","0 IRIDIUM 136","1 42962U 17061H   20026.84544577 +.00000083 +00000-0 +22504-4 0  9990","2 42962 086.3971 280.2797 0002256 095.3034 264.8420 14.34220021120393"
"2.0","GENERATED VIA SPACE-TRACK.ORG API","2020-01-26T22:30:17","18 SPCS","IRIDIUM 136","2017-061H","EARTH","TEME","UTC","SGP4","2020-01-26T18:36:58.523904","14.34220027","0.00022560","86.3971","280.3088","95.3381","264.8072","0","U","42962","999","12038","0.00002287800000","0.00000084","0.0000000000000","7155.796","100.403","779.275","776.047","PAYLOAD","LARGE","US","2017-10-09","AFWTR","","2690420","147367462","0 IRIDIUM 136","1 42962U 17061H   20026.77567736  .00000084  00000-0  22878-4 0  9999","2 42962  86.3971 280.3088 0002256  95.3381 264.8072 14.34220027120380"
"2.0","GENERATED VIA SPACE-TRACK.ORG API","2020-01-26T18:04:09","18 SPCS","COSMOS 1818","1987-011A","EARTH","TEME","UTC","SGP4","2020-01-26T08:02:38.376096","14.31452146","0.00137700","65.0120","304.2178","257.9973","101.9568","0","U","17369","999","77477","0.00001781300000","-0.00000053","0.0000000000000","7165.017","100.597","796.749","777.016","PAYLOAD","LARGE","CIS","1987-02-01","TTMTR","","2690363","147351146","0 COSMOS 1818","1 17369U 87011A   20026.33516639 -.00000053 +00000-0 +17813-4 0  9992","2 17369 065.0120 304.2178 0013770 257.9973 101.9568 14.31452146774770"
"2.0","GENERATED VIA SPACE-TRACK.ORG API","2020-01-26T18:04:09","18 SPCS","IRIDIUM 136","2017-061H","EARTH","TEME","UTC","SGP4","2020-01-26T06:53:42.590400","14.34219971","0.00022430","86.3972","280.5129","95.3653","264.7798","0","U","42962","999","12031","0.00002345500000","0.00000085","0.0000000000000","7155.796","100.403","779.266","776.056","PAYLOAD","LARGE","US","2017-10-09","AFWTR","","2690363","147364723","0 IRIDIUM 136","1 42962U 17061H   20026.28729850 +.00000085 +00000-0 +23455-4 0  9995","2 42962 086.3972 280.5129 0002243 095.3653 264.7798 14.34219971120310"
